0 BREEZE-M R/B
1 36359U 10002B   23311.16308257 -.00000151  00000-0  00000+0 0  9998
2 36359   9.2561  44.3787 0214991 229.7162 131.4217  1.04041269 52350
0 BREEZE-M DEB (TANK)
1 36360U 10002C   23309.84114040 -.00000063  00000-0 -22534-2 0  9999
2 36360  45.3073 179.9820 6899882 336.3505   3.3672  2.34907200117538
0 YAOGAN 1 DEB
1 36365U 06015J   23311.10985196  .00010093  00000-0  94174-3 0  9995
2 36365  97.9149 351.5495 0022094 154.4967 205.7348 14.94218070744931
0 COSMOS 2251 DEB
1 36366U 93036AYT 23308.44080393  .00005272  00000-0  22564-2 0  9999
2 36366  74.0698 224.4062 0102967  84.9365 276.3523 14.22293120753087
0 COSMOS 2251 DEB
1 36367U 93036AYU 23309.13017560  .00001693  00000-0  12016-2 0  9997
2 36367  74.0983  83.0181 0277996 339.9268  19.1087 13.81491167468969
0 COSMOS 2251 DEB
1 36368U 93036AYV 23309.47255080  .00016293  00000-0  61307-2 0  9995
2 36368  74.1644   3.8300 0125445  82.3841 279.1535 14.27201806494689
0 COSMOS 2251 DEB
1 36369U 93036AYW 23305.20201952  .00007620  00000-0  18189-2 0  9996
2 36369  74.0386 112.4546 0022620  34.2779 325.9837 14.53673681746237
0 COSMOS 2251 DEB
1 36371U 93036AYY 23308.35503231  .00007567  00000-0  19967-2 0  9998
2 36371  74.0109 189.5597 0020450  65.0756 295.2526 14.48961988602228
0 COSMOS 2251 DEB
1 36372U 93036AYZ 23302.06720664  .00029861  00000-0  59368-2 0  9992
2 36372  74.0090 199.4001 0031585  89.6683 270.8103 14.61662538743309
0 COSMOS 2251 DEB
1 36375U 93036AZC 23308.21740377  .00061168  00000-0  62992-2 0  9994
2 36375  74.0280 286.1730 0011299 238.4424 121.5655 14.89888933482733
0 COSMOS 2251 DEB
1 36378U 93036AZF 23310.19895863  .00230383  00000-0  87864-2 0  9990
2 36378  74.0572 245.7974 0041400 128.0395 232.4554 15.24844359761306
0 COSMOS 2251 DEB
1 36379U 93036AZG 23309.17802262  .00001716  00000-0  61937-3 0  9998
2 36379  74.0117 277.4010 0049305 230.1761 142.4925 14.33703882538048
0 COSMOS 2251 DEB
1 36381U 93036AZJ 23296.25803515  .00015978  00000-0  34404-2 0  9990
2 36381  74.0101 248.2506 0036558 127.9115 232.5364 14.58046571596080
0 COSMOS 2251 DEB
1 36384U 93036AZM 23310.29566707  .00062835  00000-0  10731-1 0  9993
2 36384  74.0247  56.3550 0013369 311.8814  48.1215 14.68489949757970
0 COSMOS 2251 DEB
1 36385U 93036AZN 23311.08798477  .00013617  00000-0  28051-2 0  9992
2 36385  73.9832 184.4120 0200069 180.3336 179.7726 14.48649260742646
0 COSMOS 2251 DEB
1 36387U 93036AZQ 23309.10719749  .00046615  00000-0  10199-1 0  9996
2 36387  73.9868 230.6046 0045147 151.0335 209.3349 14.56827102546977
0 IRIDIUM 33 DEB
1 36390U 97051VU  23308.70048193  .00010275  00000-0  22669-2 0  9993
2 36390  86.2948 286.4938 0040207 284.2132  75.4611 14.56760437550024
0 SDO
1 36395U 10005A   23310.46174953 -.00000035  00000-0  00000-0 0  9999
2 36395  32.6645 101.1053 0001956 189.5628 179.2573  1.00272947 50501
0 ATLAS 5 CENTAUR R/B
1 36396U 10005B   23310.09171129 -.00000096  00000-0  00000-0 0  9998
2 36396  28.5853  97.8851 6415860 133.1034 302.5522  2.28850261114822
0 INTELSAT 16
1 36397U 10006A   23310.47905660 -.00000238  00000-0  00000-0 0  9995
2 36397   0.0165 329.0049 0002672 270.3712 262.3412  1.00270558 50090
0 BREEZE-M R/B
1 36398U 10006B   23310.37749812 -.00000158  00000-0  00000-0 0  9991
2 36398  11.5244  53.6864 0473160  43.0419 320.4955  0.86942076 43593
0 BREEZE-M DEB (TANK)
1 36399U 10006C   23309.03004320 -.00000189  00000-0 -30550-3 0  9992
2 36399  45.5295 229.8288 7121750 310.3162   6.6202  2.26530788112315
0 COSMOS 2459 (GLONASS)
1 36400U 10007A   23311.09044300 -.00000051  00000-0  00000+0 0  9997
2 36400  65.8849 346.6148 0025779 342.7413  92.3343  2.13117208106502
0 COSMOS 2461 (GLONASS)
1 36401U 10007B   23311.18383510 -.00000051  00000-0  00000+0 0  9997
2 36401  65.8800 346.5739 0019195 358.1914 114.4450  2.13106452106501
0 COSMOS 2460 (GLONASS)
1 36402U 10007C   23310.82763073 -.00000053  00000-0  00000-0 0  9997
2 36402  65.8660 346.5282 0002483 251.2879 260.3244  2.13106400106419
0 SL-12 R/B(2)
1 36403U 10007D   23309.05905052 -.00000063  00000-0  00000-0 0  9997
2 36403  65.8671 346.2615 0018625 192.0200 232.0933  2.13315288106545
0 SL-12 R/B(AUX MOTOR)
1 36406U 10007G   23310.03319730  .00000786  00000-0  17092-2 0  9994
2 36406  64.3542 199.2134 5760801 356.6206   0.8136  4.22838850142868
0 SL-12 R/B(AUX MOTOR)
1 36407U 10007H   23310.06363301  .00000224  00000-0  50330-3 0  9991
2 36407  64.9818 158.6268 5702810 318.3171  10.0750  4.25427201211791
0 GOES 15
1 36411U 10008A   23310.86368687  .00000059  00000-0  00000-0 0  9999
2 36411   0.2583 273.9550 0005840 330.7320 173.9403  1.00165928 50083
0 DELTA 4 R/B
1 36412U 10008B   23310.48329106 -.00000073  00000-0  00000-0 0  9998
2 36412  11.8033 115.0266 5210616 245.3629 104.5119  1.92896157 96315
0 YAOGAN 9A
1 36413U 10009A   23310.37492049  .00000263  00000-0  31891-3 0  9990
2 36413  63.3763 303.1860 0455345  15.0023 346.4005 13.45323822671633
0 YAOGAN 9B
1 36414U 10009B   23310.73365168  .00000249  00000-0  30586-3 0  9996
2 36414  63.3777 301.8614 0455866  14.2827 347.0599 13.45334955671456
0 YAOGAN 9C
1 36415U 10009C   23310.73172191  .00000239  00000-0  29610-3 0  9994
2 36415  63.3774 302.4472 0456687  14.5881 346.7829 13.45337363671614
0 CZ-4C R/B
1 36416U 10009D   23311.16882788  .00000581  00000-0  20428-3 0  9991
2 36416  63.4036 107.3661 0614835 357.9652   1.8896 13.70308237684040
0 CZ-4C DEB
1 36417U 10009E   23310.76010443  .00000723  00000-0  73601-3 0  9997
2 36417  63.3781 305.6482 0453267  14.1244 156.5381 13.45490101671429
0 CZ-4C DEB
1 36418U 10009F   23310.78469887  .00000742  00000-0  75773-3 0  9993
2 36418  63.3786 310.5425 0451816  13.7810 156.8468 13.45345421671398
0 COSMOS 2251 DEB
1 36419U 93036AZS 23307.55202821  .00029253  00000-0  78315-2 0  9991
2 36419  73.8419 261.6024 0087386 346.8304  13.0570 14.45849148538277
0 COSMOS 2251 DEB
1 36420U 93036AZT 23310.20027957  .00001157  00000-0  40973-3 0  9997
2 36420  74.0376 245.0390 0018432 168.0295 259.3286 14.35592141740175
0 COSMOS 2251 DEB
1 36422U 93036AZV 23310.46101994  .00148049  00000-0  86667-2 0  9992
2 36422  74.0019  13.3269 0064202  59.7384 301.0141 15.09358403540427
0 COSMOS 2251 DEB
1 36424U 93036AZX 23307.30872919  .00010613  00000-0  30325-2 0  9990
2 36424  74.1804 168.2074 0091286 190.0722 169.8610 14.42752279730464
0 COSMOS 2251 DEB
1 36430U 93036BAD 23309.99007610  .00002290  00000-0  94057-3 0  9997
2 36430  74.0070  58.9237 0100721  25.8245 334.7879 14.24856667536102
0 COSMOS 2251 DEB
1 36437U 93036BAL 23310.62372226  .00020225  00000-0  49512-2 0  9997
2 36437  73.9512  68.5070 0026161 106.4458 253.9581 14.52234301746973
0 COSMOS 2251 DEB
1 36439U 93036BAN 23310.34563253  .00001901  00000-0  18484-2 0  9994
2 36439  73.9702 177.7553 0441662 299.4564  56.3152 13.44100080482874
0 COSMOS 2251 DEB
1 36441U 93036BAQ 23309.76972598  .00008136  00000-0  70215-3 0  9995
2 36441  73.8394 124.3668 0148733  25.4980 335.3439 14.89177823754688
0 COSMOS 2251 DEB
1 36442U 93036BAR 23309.74135326  .00019772  00000-0  43675-2 0  9991
2 36442  73.9846 119.9730 0032818  69.8155 290.6533 14.56910338745480
0 COSMOS 2251 DEB
1 36448U 93036BAX 23308.53164204  .00024874  00000-0  56546-2 0  9990
2 36448  74.0776 252.9117 0040588   7.8114 352.3672 14.55352606728812
0 COSMOS 2251 DEB
1 36451U 93036BBA 23302.60936190  .00004803  00000-0  21552-2 0  9996
2 36451  73.9533 279.6209 0202530 269.4363  88.3568 14.12413357733508
0 COSMOS 2251 DEB
1 36453U 93036BBC 23309.03878668  .00004811  00000-0  13975-2 0  9996
2 36453  73.9291 160.4326 0082000 233.0179 278.1034 14.42640084733439
0 COSMOS 2251 DEB
1 36459U 93036BBJ 23301.74460478  .00003102  00000-0  14411-2 0  9996
2 36459  74.0498 309.6819 0142663 233.7498 125.0393 14.15815259747502
0 COSMOS 2251 DEB
1 36470U 93036BBV 23309.82762986  .00016503  00000-0  33900-2 0  9998
2 36470  73.8634 340.2001 0059961 320.8874  38.7962 14.59482559742476
0 COSMOS 2251 DEB
1 36476U 93036BCB 23310.88668095  .00056747  00000-0  73377-2 0  9994
2 36476  74.0246   8.7718 0016202 283.4813  76.4557 14.80501722760391
0 IRIDIUM 33 DEB
1 36483U 97051VZ  23309.93707871  .00006049  00000-0  19129-2 0  9998
2 36483  86.3866  19.4461 0010798 139.2927 220.9081 14.40023363748104
0 IRIDIUM 33 DEB
1 36485U 97051WB  23311.16232037  .00086735  00000-0  18876-1 0  9992
2 36485  86.4204 109.9537 0098290 186.5428 173.4504 14.54501750726188
0 IRIDIUM 33 DEB
1 36487U 97051WD  23310.23837631  .00053464  00000-0  18909-1 0  9992
2 36487  86.3554 123.3386 0131031 255.9991 102.6604 14.29596883585020
0 IRIDIUM 33 DEB
1 36490U 97051WG  23310.85491201  .00014571  00000-0  34458-2 0  9997
2 36490  86.3770 349.4538 0003889 128.1326 232.0232 14.54036068752591
0 IRIDIUM 33 DEB
1 36492U 97051WJ  23311.10964689  .00103285  00000-0  96828-2 0  9993
2 36492  86.4136 354.8304 0004493  73.5300 286.6422 14.93487966764597
0 IRIDIUM 33 DEB
1 36493U 97051WK  23310.38547336  .00013780  00000-0  35364-2 0  9997
2 36493  86.3643 348.1055 0016086  67.2911 292.9992 14.50108952633414
0 IRIDIUM 33 DEB
1 36497U 97051WP  23297.59989364  .00003784  00000-0  10946-2 0  9991
2 36497  86.1531 252.2089 0061147 214.3171 145.4074 14.43222111543278
0 ECHOSTAR 14
1 36499U 10010A   23310.52385735  .00000006  00000-0  00000-0 0  9996
2 36499   0.0157 259.3805 0002099 324.7336 251.0854  1.00272686 36990
0 BREEZE-M R/B
1 36500U 10010B   23309.24101779 -.00000074  00000-0  00000-0 0  9996
2 36500  26.9400  44.0313 6379713 104.0226 330.1673  2.24378394111720
0 BREEZE-M DEB (TANK)
1 36501U 10010C   23311.18138018  .00005576  00000-0  10889-2 0  9998
2 36501  49.6707 356.2494 4839203 136.0152 274.7380  5.87406972286308
0 CRYOSAT 2
1 36508U 10013A   23310.91772207  .00000688  00000-0  16999-3 0  9990
2 36508  92.0342  46.9006 0002732   6.4612 353.6630 14.51908919719765
0 SL-24 R/B
1 36509U 10013B   23310.85196152  .00000407  00000-0  22825-3 0  9997
2 36509  91.9216 240.2604 0273098 312.3859  45.4486 13.93560184690715
